{
  "norad_id": 48242,
  "name": "ONEWEB-0207",
  "history": [
    {
      "epoch": "2026-03-28T15:29:36.463488",
      "apogee_km": 1206.8917810942203,
      "perigee_km": 1204.6848588261118,
      "latitude_deg": -31.913697205473216,
      "longitude_deg": 146.17384832003154,
      "semi_major_axis_km": 7583.925319960166,
      "eccentricity": 0.0001455,
      "inclination_deg": 87.8954,
      "raan_deg": 305.7685,
      "arg_perigee_deg": 78.0268,
      "mean_anomaly_deg": 282.1025,
      "mean_motion_rev_day": 13.14503329
    },
    {
      "epoch": "2026-03-29T02:27:15.924096",
      "apogee_km": 1206.883637680835,
      "perigee_km": 1204.6964331238241,
      "latitude_deg": 50.70939297152012,
      "longitude_deg": -169.9823065600358,
      "semi_major_axis_km": 7583.927035402329,
      "eccentricity": 0.0001442,
      "inclination_deg": 87.8954,
      "raan_deg": 305.6774,
      "arg_perigee_deg": 78.4958,
      "mean_anomaly_deg": 281.6333,
      "mean_motion_rev_day": 13.14502883
    }
  ]
}